{
  "type": "FeatureCollection",
  "features": [
    {
      "type": "Feature",
      "properties": {
        "norad_id": 33765,
        "name": "COSMOS 2251 DEB",
        "group": "cosmos-2251-debris",
        "lat": -29.278197018103754,
        "lon": 144.19676309299342,
        "alt_km": 536.6447087083079,
        "timestamp": "2025-12-22T05:49:03.893665+00:00",
        "meta_object_name": "COSMOS 2251 DEB",
        "meta_object_id": "1993-036N",
        "meta_epoch": "2025-12-21T12:45:57.813696",
        "meta_mean_motion": 15.10439546,
        "meta_eccentricity": 0.00649968,
        "meta_inclination": 74.0083,
        "meta_ra_of_asc_node": 154.9192,
        "meta_arg_of_pericenter": 245.5497,
        "meta_mean_anomaly": 181.5198,
        "meta_ephemeris_type": 0,
        "meta_classification_type": "U",
        "meta_norad_cat_id": 33765,
        "meta_element_set_no": 999,
        "meta_rev_at_epoch": 89751,
        "meta_bstar": 0.0013334963,
        "meta_mean_motion_dot": 0.00023096,
        "meta_mean_motion_ddot": 0,
        "tle_line1": "1 33765U 93036N   25355.53191914  .00023096  00000+0  13335-2 0  9994",
        "tle_line2": "2 33765  74.0083 154.9192 0064996 245.5497 181.5198 15.10439546897510"
      },
      "geometry": {
        "type": "Point",
        "coordinates": [
          144.19676309299342,
          -29.278197018103754
        ]
      }
    },
    {
      "type": "Feature",
      "properties": {
        "norad_id": 33766,
        "name": "COSMOS 2251 DEB",
        "group": "cosmos-2251-debris",
        "lat": 49.77571912332722,
        "lon": -81.85523874170238,
        "alt_km": 815.6832125535147,
        "timestamp": "2025-12-22T05:49:03.893676+00:00",
        "meta_object_name": "COSMOS 2251 DEB",
        "meta_object_id": "1993-036P",
        "meta_epoch": "2025-12-21T19:11:07.143936",
        "meta_mean_motion": 14.34958417,
        "meta_eccentricity": 0.0064629,
        "meta_inclination": 74.1858,
        "meta_ra_of_asc_node": 118.5274,
        "meta_arg_of_pericenter": 319.4117,
        "meta_mean_anomaly": 40.2226,
        "meta_ephemeris_type": 0,
        "meta_classification_type": "U",
        "meta_norad_cat_id": 33766,
        "meta_element_set_no": 999,
        "meta_rev_at_epoch": 87875,
        "meta_bstar": 0.00041231,
        "meta_mean_motion_dot": 1.176e-05,
        "meta_mean_motion_ddot": 0,
        "tle_line1": "1 33766U 93036P   25355.79938824  .00001176  00000+0  41231-3 0  9994",
        "tle_line2": "2 33766  74.1858 118.5274 0064629 319.4117  40.2226 14.34958417878758"
      },
      "geometry": {
        "type": "Point",
        "coordinates": [
          -81.85523874170238,
          49.77571912332722
        ]
      }
    },
    {
      "type": "Feature",
      "properties": {
        "norad_id": 33768,
        "name": "COSMOS 2251 DEB",
        "group": "cosmos-2251-debris",
        "lat": -40.105255702175455,
        "lon": -169.38987878544356,
        "alt_km": 841.3414803356009,
        "timestamp": "2025-12-22T05:49:03.893686+00:00",
        "meta_object_name": "COSMOS 2251 DEB",
        "meta_object_id": "1993-036R",
        "meta_epoch": "2025-12-21T17:58:43.775328",
        "meta_mean_motion": 13.58462214,
        "meta_eccentricity": 0.0366738,
        "meta_inclination": 74.0666,
        "meta_ra_of_asc_node": 205.3276,
        "meta_arg_of_pericenter": 1.1074,
        "meta_mean_anomaly": 68.1779,
        "meta_ephemeris_type": 0,
        "meta_classification_type": "U",
        "meta_norad_cat_id": 33768,
        "meta_element_set_no": 999,
        "meta_rev_at_epoch": 83418,
        "meta_bstar": 0.00027479,
        "meta_mean_motion_dot": 2.89e-06,
        "meta_mean_motion_ddot": 0,
        "tle_line1": "1 33768U 93036R   25355.74911777  .00000289  00000+0  27479-3 0  9991",
        "tle_line2": "2 33768  74.0666 205.3276 0366738   1.1074  68.1779 13.58462214834187"
      },
      "geometry": {
        "type": "Point",
        "coordinates": [
          -169.38987878544356,
          -40.105255702175455
        ]
      }
    },
    {
      "type": "Feature",
      "properties": {
        "norad_id": 33779,
        "name": "COSMOS 2251 DEB",
        "group": "cosmos-2251-debris",
        "lat": -62.08465319634003,
        "lon": 4.975658409049954,
        "alt_km": 660.3015110470196,
        "timestamp": "2025-12-22T05:49:03.893697+00:00",
        "meta_object_name": "COSMOS 2251 DEB",
        "meta_object_id": "1993-036U",
        "meta_epoch": "2025-12-21T17:21:10.281888",
        "meta_mean_motion": 14.70655044,
        "meta_eccentricity": 0.0016271,
        "meta_inclination": 74.0446,
        "meta_ra_of_asc_node": 153.2999,
        "meta_arg_of_pericenter": 186.2885,
        "meta_mean_anomaly": 191.6878,
        "meta_ephemeris_type": 0,
        "meta_classification_type": "U",
        "meta_norad_cat_id": 33779,
        "meta_element_set_no": 999,
        "meta_rev_at_epoch": 88660,
        "meta_bstar": 0.0020045,
        "meta_mean_motion_dot": 0.00012218,
        "meta_mean_motion_ddot": 0,
        "tle_line1": "1 33779U 93036U   25355.72303567  .00012218  00000+0  20045-2 0  9999",
        "tle_line2": "2 33779  74.0446 153.2999 0016271 186.2885 191.6878 14.70655044886603"
      },
      "geometry": {
        "type": "Point",
        "coordinates": [
          4.975658409049954,
          -62.08465319634003
        ]
      }
    },
    {
      "type": "Feature",
      "properties": {
        "norad_id": 33782,
        "name": "COSMOS 2251 DEB",
        "group": "cosmos-2251-debris",
        "lat": 55.23222740078225,
        "lon": -75.66920866158506,
        "alt_km": 752.6836327655465,
        "timestamp": "2025-12-22T05:49:03.893707+00:00",
        "meta_object_name": "COSMOS 2251 DEB",
        "meta_object_id": "1993-036X",
        "meta_epoch": "2025-12-21T18:01:21.601344",
        "meta_mean_motion": 14.40468495,
        "meta_eccentricity": 0.0021054,
        "meta_inclination": 74.033,
        "meta_ra_of_asc_node": 260.8813,
        "meta_arg_of_pericenter": 324.534,
        "meta_mean_anomaly": 66.4442,
        "meta_ephemeris_type": 0,
        "meta_classification_type": "U",
        "meta_norad_cat_id": 33782,
        "meta_element_set_no": 999,
        "meta_rev_at_epoch": 88256,
        "meta_bstar": 0.00028304,
        "meta_mean_motion_dot": 8.76e-06,
        "meta_mean_motion_ddot": 0,
        "tle_line1": "1 33782U 93036X   25355.75094446  .00000876  00000+0  28304-3 0  9993",
        "tle_line2": "2 33782  74.0330 260.8813 0021054 324.5340  66.4442 14.40468495882563"
      },
      "geometry": {
        "type": "Point",
        "coordinates": [
          -75.66920866158506,
          55.23222740078225
        ]
      }
    },
    {
      "type": "Feature",
      "properties": {
        "norad_id": 33785,
        "name": "COSMOS 2251 DEB",
        "group": "cosmos-2251-debris",
        "lat": -38.913431518439126,
        "lon": -125.19008296663262,
        "alt_km": 672.660420683952,
        "timestamp": "2025-12-22T05:49:03.893717+00:00",
        "meta_object_name": "COSMOS 2251 DEB",
        "meta_object_id": "1993-036AA",
        "meta_epoch": "2025-12-21T13:01:26.136768",
        "meta_mean_motion": 14.70662502,
        "meta_eccentricity": 0.00231065,
        "meta_inclination": 73.8668,
        "meta_ra_of_asc_node": 42.668,
        "meta_arg_of_pericenter": 340.3812,
        "meta_mean_anomaly": 137.3935,
        "meta_ephemeris_type": 0,
        "meta_classification_type": "U",
        "meta_norad_cat_id": 33785,
        "meta_element_set_no": 999,
        "meta_rev_at_epoch": 88636,
        "meta_bstar": 0.0014349442,
        "meta_mean_motion_dot": 8.751e-05,
        "meta_mean_motion_ddot": 0,
        "tle_line1": "1 33785U 93036AA  25355.54266362  .00008751  00000+0  14349-2 0  9994",
        "tle_line2": "2 33785  73.8668  42.6680 0023106 340.3812 137.3935 14.70662502886360"
      },
      "geometry": {
        "type": "Point",
        "coordinates": [
          -125.19008296663262,
          -38.913431518439126
        ]
      }
    },
    {
      "type": "Feature",
      "properties": {
        "norad_id": 33789,
        "name": "COSMOS 2251 DEB",
        "group": "cosmos-2251-debris",
        "lat": 55.53513339496032,
        "lon": -133.31896502817835,
        "alt_km": 846.6415671203686,
        "timestamp": "2025-12-22T05:49:03.893727+00:00",
        "meta_object_name": "COSMOS 2251 DEB",
        "meta_object_id": "1993-036AE",
        "meta_epoch": "2025-12-21T14:00:01.056384",
        "meta_mean_motion": 13.88814381,
        "meta_eccentricity": 0.0239773,
        "meta_inclination": 74.0644,
        "meta_ra_of_asc_node": 72.3973,
        "meta_arg_of_pericenter": 186.0838,
        "meta_mean_anomaly": 243.4217,
        "meta_ephemeris_type": 0,
        "meta_classification_type": "U",
        "meta_norad_cat_id": 33789,
        "meta_element_set_no": 999,
        "meta_rev_at_epoch": 85218,
        "meta_bstar": 0.0005529,
        "meta_mean_motion_dot": 8.17e-06,
        "meta_mean_motion_ddot": 0,
        "tle_line1": "1 33789U 93036AE  25355.58334556  .00000817  00000+0  55290-3 0  9999",
        "tle_line2": "2 33789  74.0644  72.3973 0239773 186.0838 243.4217 13.88814381852185"
      },
      "geometry": {
        "type": "Point",
        "coordinates": [
          -133.31896502817835,
          55.53513339496032
        ]
      }
    }
  ]
}